CCSDS_OMM_VERS = 2.0
CREATION_DATE  = 
ORIGINATOR     = 

OBJECT_NAME    = IDEFIX & ARIANE 42P R/B
OBJECT_ID      = 2002-021B
CENTER_NAME    = EARTH
REF_FRAME      = TEME
TIME_SYSTEM    = UTC
MEAN_ELEMENT_THEORY = SGP/SGP4

EPOCH          = 2026-02-24T06:44:33.238464
MEAN_MOTION    = 14.31015482
ECCENTRICITY   = .00108785
INCLINATION    = 98.5858
RA_OF_ASC_NODE = 354.0488
ARG_OF_PERICENTER = 223.6090
MEAN_ANOMALY   = 136.4234

EPHEMERIS_TYPE = 0
CLASSIFICATION_TYPE = U
NORAD_CAT_ID   = 27422
ELEMENT_SET_NO = 999
REV_AT_EPOCH   = 24210
BSTAR          = .12475004E-3
MEAN_MOTION_DOT = .285E-5
MEAN_MOTION_DDOT = 0

CCSDS_OMM_VERS = 2.0
CREATION_DATE  = 
ORIGINATOR     = 

OBJECT_NAME    = AQUA
OBJECT_ID      = 2002-022A
CENTER_NAME    = EARTH
REF_FRAME      = TEME
TIME_SYSTEM    = UTC
MEAN_ELEMENT_THEORY = SGP/SGP4

EPOCH          = 2026-02-24T06:41:26.145312
MEAN_MOTION    = 14.61939902
ECCENTRICITY   = .00009254
INCLINATION    = 98.4150
RA_OF_ASC_NODE = 22.4021
ARG_OF_PERICENTER = 48.5118
MEAN_ANOMALY   = 59.0006

EPHEMERIS_TYPE = 0
CLASSIFICATION_TYPE = U
NORAD_CAT_ID   = 27424
ELEMENT_SET_NO = 999
REV_AT_EPOCH   = 26677
BSTAR          = .22574884E-3
MEAN_MOTION_DOT = .1081E-4
MEAN_MOTION_DDOT = 0

CCSDS_OMM_VERS = 2.0
CREATION_DATE  = 
ORIGINATOR     = 

OBJECT_NAME    = CZ-4B R/B
OBJECT_ID      = 2002-024C
CENTER_NAME    = EARTH
REF_FRAME      = TEME
TIME_SYSTEM    = UTC
MEAN_ELEMENT_THEORY = SGP/SGP4

EPOCH          = 2026-02-24T03:08:51.309888
MEAN_MOTION    = 14.14544903
ECCENTRICITY   = .00510289
INCLINATION    = 98.8872
RA_OF_ASC_NODE = 108.6042
ARG_OF_PERICENTER = 62.2489
MEAN_ANOMALY   = 323.2269

EPHEMERIS_TYPE = 0
CLASSIFICATION_TYPE = U
NORAD_CAT_ID   = 27432
ELEMENT_SET_NO = 999
REV_AT_EPOCH   = 22732
BSTAR          = .34465697E-4
MEAN_MOTION_DOT = .23E-6
MEAN_MOTION_DDOT = 0

CCSDS_OMM_VERS = 2.0
CREATION_DATE  = 
ORIGINATOR     = 

OBJECT_NAME    = MIDORI II (ADEOS-II)
OBJECT_ID      = 2002-056A
CENTER_NAME    = EARTH
REF_FRAME      = TEME
TIME_SYSTEM    = UTC
MEAN_ELEMENT_THEORY = SGP/SGP4

EPOCH          = 2026-02-24T07:01:32.187360
MEAN_MOTION    = 14.29273506
ECCENTRICITY   = .00020011
INCLINATION    = 98.7744
RA_OF_ASC_NODE = 13.6800
ARG_OF_PERICENTER = 61.7674
MEAN_ANOMALY   = 298.3709

EPHEMERIS_TYPE = 0
CLASSIFICATION_TYPE = U
NORAD_CAT_ID   = 27597
ELEMENT_SET_NO = 999
REV_AT_EPOCH   = 20838
BSTAR          = .11832066E-3
MEAN_MOTION_DOT = .256E-5
MEAN_MOTION_DDOT = 0

CCSDS_OMM_VERS = 2.0
CREATION_DATE  = 
ORIGINATOR     = 

OBJECT_NAME    = H-2A R/B
OBJECT_ID      = 2002-056E
CENTER_NAME    = EARTH
REF_FRAME      = TEME
TIME_SYSTEM    = UTC
MEAN_ELEMENT_THEORY = SGP/SGP4

EPOCH          = 2026-02-24T07:41:51.434880
MEAN_MOTION    = 14.33750614
ECCENTRICITY   = .00696684
INCLINATION    = 98.3177
RA_OF_ASC_NODE = 16.1974
ARG_OF_PERICENTER = 200.5637
MEAN_ANOMALY   = 285.2545

EPHEMERIS_TYPE = 0
CLASSIFICATION_TYPE = U
NORAD_CAT_ID   = 27601
ELEMENT_SET_NO = 999
REV_AT_EPOCH   = 21219
BSTAR          = .11318941E-3
MEAN_MOTION_DOT = .281E-5
MEAN_MOTION_DDOT = 0

CCSDS_OMM_VERS = 2.0
CREATION_DATE  = 
ORIGINATOR     = 

OBJECT_NAME    = CZ-4B R/B
OBJECT_ID      = 2003-049C
CENTER_NAME    = EARTH
REF_FRAME      = TEME
TIME_SYSTEM    = UTC
MEAN_ELEMENT_THEORY = SGP/SGP4

EPOCH          = 2026-02-24T05:58:17.341248
MEAN_MOTION    = 14.55004792
ECCENTRICITY   = .00469923
INCLINATION    = 98.6867
RA_OF_ASC_NODE = 49.6279
ARG_OF_PERICENTER = 272.8948
MEAN_ANOMALY   = 86.6870

EPHEMERIS_TYPE = 0
CLASSIFICATION_TYPE = U
NORAD_CAT_ID   = 28059
ELEMENT_SET_NO = 999
REV_AT_EPOCH   = 18464
BSTAR          = .10883525E-3
MEAN_MOTION_DOT = .423E-5
MEAN_MOTION_DDOT = 0

CCSDS_OMM_VERS = 2.0
CREATION_DATE  = 
ORIGINATOR     = 

OBJECT_NAME    = CZ-2C R/B
OBJECT_ID      = 2004-012C
CENTER_NAME    = EARTH
REF_FRAME      = TEME
TIME_SYSTEM    = UTC
MEAN_ELEMENT_THEORY = SGP/SGP4

EPOCH          = 2026-02-24T04:04:38.804448
MEAN_MOTION    = 15.62819312
ECCENTRICITY   = .00140903
INCLINATION    = 97.7264
RA_OF_ASC_NODE = 119.1976
ARG_OF_PERICENTER = 3.8799
MEAN_ANOMALY   = 356.2565

EPHEMERIS_TYPE = 0
CLASSIFICATION_TYPE = U
NORAD_CAT_ID   = 28222
ELEMENT_SET_NO = 999
REV_AT_EPOCH   = 20216
BSTAR          = .5390125E-3
MEAN_MOTION_DOT = .4884E-3
MEAN_MOTION_DDOT = 0

CCSDS_OMM_VERS = 2.0
CREATION_DATE  = 
ORIGINATOR     = 

OBJECT_NAME    = SL-16 R/B
OBJECT_ID      = 2004-021B
CENTER_NAME    = EARTH
REF_FRAME      = TEME
TIME_SYSTEM    = UTC
MEAN_ELEMENT_THEORY = SGP/SGP4

EPOCH          = 2026-02-23T19:25:41.384928
MEAN_MOTION    = 14.14598804
ECCENTRICITY   = .00033687
INCLINATION    = 70.9990
RA_OF_ASC_NODE = 261.6233
ARG_OF_PERICENTER = 41.2671
MEAN_ANOMALY   = 318.8706

EPHEMERIS_TYPE = 0
CLASSIFICATION_TYPE = U
NORAD_CAT_ID   = 28353
ELEMENT_SET_NO = 999
REV_AT_EPOCH   = 12087
BSTAR          = .1009784E-3
MEAN_MOTION_DOT = .146E-5
MEAN_MOTION_DDOT = 0

CCSDS_OMM_VERS = 2.0
CREATION_DATE  = 
ORIGINATOR     = 

OBJECT_NAME    = CZ-4B R/B
OBJECT_ID      = 2004-035C
CENTER_NAME    = EARTH
REF_FRAME      = TEME
TIME_SYSTEM    = UTC
MEAN_ELEMENT_THEORY = SGP/SGP4

EPOCH          = 2026-02-24T02:23:43.562400
MEAN_MOTION    = 15.28787034
ECCENTRICITY   = .00326742
INCLINATION    = 97.3528
RA_OF_ASC_NODE = 89.5067
ARG_OF_PERICENTER = 20.2292
MEAN_ANOMALY   = 340.0234

EPHEMERIS_TYPE = 0
CLASSIFICATION_TYPE = U
NORAD_CAT_ID   = 28415
ELEMENT_SET_NO = 999
REV_AT_EPOCH   = 17783
BSTAR          = .30627213E-3
MEAN_MOTION_DOT = .8631E-4
MEAN_MOTION_DDOT = 0

CCSDS_OMM_VERS = 2.0
CREATION_DATE  = 
ORIGINATOR     = 

OBJECT_NAME    = CZ-2C R/B
OBJECT_ID      = 2004-046B
CENTER_NAME    = EARTH
REF_FRAME      = TEME
TIME_SYSTEM    = UTC
MEAN_ELEMENT_THEORY = SGP/SGP4

EPOCH          = 2026-02-24T05:35:36.997440
MEAN_MOTION    = 14.26987096
ECCENTRICITY   = .01390585
INCLINATION    = 98.1989
RA_OF_ASC_NODE = 331.0536
ARG_OF_PERICENTER = 194.2055
MEAN_ANOMALY   = 165.5199

EPHEMERIS_TYPE = 0
CLASSIFICATION_TYPE = U
NORAD_CAT_ID   = 28480
ELEMENT_SET_NO = 999
REV_AT_EPOCH   = 10658
BSTAR          = .59523653E-4
MEAN_MOTION_DOT = .119E-5
MEAN_MOTION_DDOT = 0

CCSDS_OMM_VERS = 2.0
CREATION_DATE  = 
ORIGINATOR     = 

OBJECT_NAME    = ARIANE 5 R/B
OBJECT_ID      = 2004-049H
CENTER_NAME    = EARTH
REF_FRAME      = TEME
TIME_SYSTEM    = UTC
MEAN_ELEMENT_THEORY = SGP/SGP4

EPOCH          = 2026-02-23T21:20:45.414528
MEAN_MOTION    = 14.85236527
ECCENTRICITY   = .00848994
INCLINATION    = 98.2605
RA_OF_ASC_NODE = 222.8323
ARG_OF_PERICENTER = 36.5390
MEAN_ANOMALY   = 324.1575

EPHEMERIS_TYPE = 0
CLASSIFICATION_TYPE = U
NORAD_CAT_ID   = 28499
ELEMENT_SET_NO = 999
REV_AT_EPOCH   = 14374
BSTAR          = .9335698E-4
MEAN_MOTION_DOT = .789E-5
MEAN_MOTION_DDOT = 0

CCSDS_OMM_VERS = 2.0
CREATION_DATE  = 
ORIGINATOR     = 

OBJECT_NAME    = CZ-2D R/B
OBJECT_ID      = 2005-024B
CENTER_NAME    = EARTH
REF_FRAME      = TEME
TIME_SYSTEM    = UTC
MEAN_ELEMENT_THEORY = SGP/SGP4

EPOCH          = 2026-02-23T23:27:37.406592
MEAN_MOTION    = 15.58817780
ECCENTRICITY   = .00074687
INCLINATION    = 97.3617
RA_OF_ASC_NODE = 69.6352
ARG_OF_PERICENTER = 79.5104
MEAN_ANOMALY   = 280.6993

EPHEMERIS_TYPE = 0
CLASSIFICATION_TYPE = U
NORAD_CAT_ID   = 28738
ELEMENT_SET_NO = 999
REV_AT_EPOCH   = 13764
BSTAR          = .47626022E-3
MEAN_MOTION_DOT = .36831E-3
MEAN_MOTION_DDOT = 0

