IDEFIX & ARIANE 42P R/B 
1 27422U 02021B   26055.28094026  .00000285  00000+0  12475-3 0  9997
2 27422  98.5858 354.0488 0010878 223.6090 136.4234 14.31015482242101
AQUA                    
1 27424U 02022A   26055.27877483  .00001081  00000+0  22575-3 0  9992
2 27424  98.4150  22.4021 0000925  48.5118  59.0006 14.61939902266774
CZ-4B R/B               
1 27432U 02024C   26055.13114942  .00000023  00000+0  34466-4 0  9990
2 27432  98.8872 108.6042 0051028  62.2489 323.2269 14.14544903227328
MIDORI II (ADEOS-II)    
1 27597U 02056A   26055.29273365  .00000256  00000+0  11832-3 0  9998
2 27597  98.7744  13.6800 0002001  61.7674 298.3709 14.29273506208381
H-2A R/B                
1 27601U 02056E   26055.32073420  .00000281  00000+0  11319-3 0  9996
2 27601  98.3177  16.1974 0069668 200.5637 285.2545 14.33750614212199
CZ-4B R/B               
1 28059U 03049C   26055.24881182  .00000423  00000+0  10884-3 0  9994
2 28059  98.6867  49.6279 0046992 272.8948  86.6870 14.55004792184642
CZ-2C R/B               
1 28222U 04012C   26055.16989357  .00048840  00000+0  53901-3 0  9993
2 28222  97.7264 119.1976 0014090   3.8799 356.2565 15.62819312202168
SL-16 R/B               
1 28353U 04021B   26054.80950677  .00000146  00000+0  10098-3 0  9998
2 28353  70.9990 261.6233 0003368  41.2671 318.8706 14.14598804120876
CZ-4B R/B               
1 28415U 04035C   26055.09980975  .00008631  00000+0  30627-3 0  9995
2 28415  97.3528  89.5067 0032674  20.2292 340.0234 15.28787034177837
CZ-2C R/B               
1 28480U 04046B   26055.23306710  .00000119  00000+0  59524-4 0  9995
2 28480  98.1989 331.0536 0139058 194.2055 165.5199 14.26987096106589
ARIANE 5 R/B            
1 28499U 04049H   26054.88941452  .00000789  00000+0  93357-4 0  9991
2 28499  98.2605 222.8323 0084899  36.5390 324.1575 14.85236527143749
CZ-2D R/B               
1 28738U 05024B   26054.97751628  .00036831  00000+0  47626-3 0  9999
2 28738  97.3617  69.6352 0007468  79.5104 280.6993 15.58817780137643
